{
  "type": "FeatureCollection",
  "features": [
    {
      "type": "Feature",
      "properties": {
        "norad_id": 28054,
        "name": "DMSP 5D-3 F16 (USA 172)",
        "group": "weather",
        "lat": -55.71646198463249,
        "lon": 14.58920873830608,
        "alt_km": 847.0257991146364,
        "timestamp": "2025-12-09T16:56:36.222225+00:00",
        "meta_object_name": "DMSP 5D-3 F16 (USA 172)",
        "meta_object_id": "2003-048A",
        "meta_epoch": "2025-12-09T10:55:28.707168",
        "meta_mean_motion": 14.14422591,
        "meta_eccentricity": 0.0006613,
        "meta_inclination": 99.0048,
        "meta_ra_of_asc_node": 0.8863,
        "meta_arg_of_pericenter": 331.0856,
        "meta_mean_anomaly": 135.9876,
        "meta_ephemeris_type": 0,
        "meta_classification_type": "U",
        "meta_norad_cat_id": 28054,
        "meta_element_set_no": 999,
        "meta_rev_at_epoch": 14266,
        "meta_bstar": 0.00014838,
        "meta_mean_motion_dot": 2.39e-06,
        "meta_mean_motion_ddot": 0,
        "tle_line1": "1 28054U 03048A   25343.45519337  .00000239  00000+0  14838-3 0  9998",
        "tle_line2": "2 28054  99.0048   0.8863 0006613 331.0856 135.9876 14.14422591142669"
      },
      "geometry": {
        "type": "Point",
        "coordinates": [
          14.58920873830608,
          -55.71646198463249
        ]
      }
    },
    {
      "type": "Feature",
      "properties": {
        "norad_id": 28912,
        "name": "METEOSAT-9 (MSG-2)",
        "group": "weather",
        "lat": -5.418411522462843,
        "lon": 18.85049696419981,
        "alt_km": 35796.94940211064,
        "timestamp": "2025-12-09T16:56:36.222281+00:00",
        "meta_object_name": "METEOSAT-9 (MSG-2)",
        "meta_object_id": "2005-049B",
        "meta_epoch": "2025-12-08T20:40:05.248704",
        "meta_mean_motion": 1.00274262,
        "meta_eccentricity": 0.000384,
        "meta_inclination": 8.931,
        "meta_ra_of_asc_node": 56.0124,
        "meta_arg_of_pericenter": 190.0622,
        "meta_mean_anomaly": 187.4345,
        "meta_ephemeris_type": 0,
        "meta_classification_type": "U",
        "meta_norad_cat_id": 28912,
        "meta_element_set_no": 999,
        "meta_rev_at_epoch": 509,
        "meta_bstar": 0,
        "meta_mean_motion_dot": 1.23e-06,
        "meta_mean_motion_ddot": 0,
        "tle_line1": "1 28912U 05049B   25342.86117186  .00000123  00000+0  00000+0 0  9998",
        "tle_line2": "2 28912   8.9310  56.0124 0003840 190.0622 187.4345  1.00274262  5098"
      },
      "geometry": {
        "type": "Point",
        "coordinates": [
          18.85049696419981,
          -5.418411522462843
        ]
      }
    },
    {
      "type": "Feature",
      "properties": {
        "norad_id": 29522,
        "name": "DMSP 5D-3 F17 (USA 191)",
        "group": "weather",
        "lat": -57.37604253065428,
        "lon": 155.2539074877756,
        "alt_km": 842.9503422355892,
        "timestamp": "2025-12-09T16:56:36.222302+00:00",
        "meta_object_name": "DMSP 5D-3 F17 (USA 191)",
        "meta_object_id": "2006-050A",
        "meta_epoch": "2025-12-09T10:43:41.848032",
        "meta_mean_motion": 14.14917572,
        "meta_eccentricity": 0.0009289,
        "meta_inclination": 98.7393,
        "meta_ra_of_asc_node": 348.9047,
        "meta_arg_of_pericenter": 235.0519,
        "meta_mean_anomaly": 124.9782,
        "meta_ephemeris_type": 0,
        "meta_classification_type": "U",
        "meta_norad_cat_id": 29522,
        "meta_element_set_no": 999,
        "meta_rev_at_epoch": 98558,
        "meta_bstar": 0.00018313,
        "meta_mean_motion_dot": 3.11e-06,
        "meta_mean_motion_ddot": 0,
        "tle_line1": "1 29522U 06050A   25343.44701213  .00000311  00000+0  18313-3 0  9993",
        "tle_line2": "2 29522  98.7393 348.9047 0009289 235.0519 124.9782 14.14917572985588"
      },
      "geometry": {
        "type": "Point",
        "coordinates": [
          155.2539074877756,
          -57.37604253065428
        ]
      }
    },
    {
      "type": "Feature",
      "properties": {
        "norad_id": 32958,
        "name": "FENGYUN 3A",
        "group": "weather",
        "lat": -78.36719065758331,
        "lon": 55.469945681564724,
        "alt_km": 831.2286843542843,
        "timestamp": "2025-12-09T16:56:36.222317+00:00",
        "meta_object_name": "FENGYUN 3A",
        "meta_object_id": "2008-026A",
        "meta_epoch": "2025-12-09T10:38:10.212000",
        "meta_mean_motion": 14.19513001,
        "meta_eccentricity": 0.0008047,
        "meta_inclination": 98.6694,
        "meta_ra_of_asc_node": 283.0395,
        "meta_arg_of_pericenter": 320.8035,
        "meta_mean_anomaly": 39.2557,
        "meta_ephemeris_type": 0,
        "meta_classification_type": "U",
        "meta_norad_cat_id": 32958,
        "meta_element_set_no": 999,
        "meta_rev_at_epoch": 90848,
        "meta_bstar": 0.00013343,
        "meta_mean_motion_dot": 2.38e-06,
        "meta_mean_motion_ddot": 0,
        "tle_line1": "1 32958U 08026A   25343.44317375  .00000238  00000+0  13343-3 0  9993",
        "tle_line2": "2 32958  98.6694 283.0395 0008047 320.8035  39.2557 14.19513001908486"
      },
      "geometry": {
        "type": "Point",
        "coordinates": [
          55.469945681564724,
          -78.36719065758331
        ]
      }
    },
    {
      "type": "Feature",
      "properties": {
        "norad_id": 35491,
        "name": "GOES 14",
        "group": "weather",
        "lat": 0.7624735888630666,
        "lon": -135.46282805245477,
        "alt_km": 35769.184241480136,
        "timestamp": "2025-12-09T16:56:36.222333+00:00",
        "meta_object_name": "GOES 14",
        "meta_object_id": "2009-033A",
        "meta_epoch": "2025-12-09T12:05:55.275072",
        "meta_mean_motion": 1.00273223,
        "meta_eccentricity": 0.0004031,
        "meta_inclination": 1.1912,
        "meta_ra_of_asc_node": 85.4442,
        "meta_arg_of_pericenter": 154.8874,
        "meta_mean_anomaly": 271.343,
        "meta_ephemeris_type": 0,
        "meta_classification_type": "U",
        "meta_norad_cat_id": 35491,
        "meta_element_set_no": 999,
        "meta_rev_at_epoch": 469,
        "meta_bstar": 0,
        "meta_mean_motion_dot": -6.6e-07,
        "meta_mean_motion_ddot": 0,
        "tle_line1": "1 35491U 09033A   25343.50411198 -.00000066  00000+0  00000+0 0  9994",
        "tle_line2": "2 35491   1.1912  85.4442 0004031 154.8874 271.3430  1.00273223  4699"
      },
      "geometry": {
        "type": "Point",
        "coordinates": [
          -135.46282805245477,
          0.7624735888630666
        ]
      }
    },
    {
      "type": "Feature",
      "properties": {
        "norad_id": 35951,
        "name": "DMSP 5D-3 F18 (USA 210)",
        "group": "weather",
        "lat": 70.44471810838401,
        "lon": 166.24423160048966,
        "alt_km": 829.2572713190648,
        "timestamp": "2025-12-09T16:56:36.222347+00:00",
        "meta_object_name": "DMSP 5D-3 F18 (USA 210)",
        "meta_object_id": "2009-057A",
        "meta_epoch": "2025-12-09T11:20:46.662720",
        "meta_mean_motion": 14.14766385,
        "meta_eccentricity": 0.0012098,
        "meta_inclination": 98.8831,
        "meta_ra_of_asc_node": 319.8899,
        "meta_arg_of_pericenter": 71.2846,
        "meta_mean_anomaly": 288.9639,
        "meta_ephemeris_type": 0,
        "meta_classification_type": "U",
        "meta_norad_cat_id": 35951,
        "meta_element_set_no": 999,
        "meta_rev_at_epoch": 83276,
        "meta_bstar": 0.00026388,
        "meta_mean_motion_dot": 4.64e-06,
        "meta_mean_motion_ddot": 0,
        "tle_line1": "1 35951U 09057A   25343.47276230  .00000464  00000+0  26388-3 0  9995",
        "tle_line2": "2 35951  98.8831 319.8899 0012098  71.2846 288.9639 14.14766385832763"
      },
      "geometry": {
        "type": "Point",
        "coordinates": [
          166.24423160048966,
          70.44471810838401
        ]
      }
    },
    {
      "type": "Feature",
      "properties": {
        "norad_id": 36411,
        "name": "EWS-G2 (GOES 15)",
        "group": "weather",
        "lat": -0.6171278200838992,
        "lon": 34.32560403744813,
        "alt_km": 35804.599120512394,
        "timestamp": "2025-12-09T16:56:36.222361+00:00",
        "meta_object_name": "EWS-G2 (GOES 15)",
        "meta_object_id": "2010-008A",
        "meta_epoch": "2025-12-09T10:26:25.684800",
        "meta_mean_motion": 1.00268986,
        "meta_eccentricity": 0.0005926,
        "meta_inclination": 0.8059,
        "meta_ra_of_asc_node": 86.0561,
        "meta_arg_of_pericenter": 173.4823,
        "meta_mean_anomaly": 36.9301,
        "meta_ephemeris_type": 0,
        "meta_classification_type": "U",
        "meta_norad_cat_id": 36411,
        "meta_element_set_no": 999,
        "meta_rev_at_epoch": 5773,
        "meta_bstar": 0,
        "meta_mean_motion_dot": 4e-07,
        "meta_mean_motion_ddot": 0,
        "tle_line1": "1 36411U 10008A   25343.43501950  .00000040  00000+0  00000+0 0  9990",
        "tle_line2": "2 36411   0.8059  86.0561 0005926 173.4823  36.9301  1.00268986 57739"
      },
      "geometry": {
        "type": "Point",
        "coordinates": [
          34.32560403744813,
          -0.6171278200838992
        ]
      }
    }
  ]
}